[{"OBJECT_NAME":"ASTROCAST-0403","OBJECT_ID":"2023-001DG","EPOCH":"2026-03-09T19:45:35.762976","MEAN_MOTION":15.28004949,"ECCENTRICITY":0.00047706,"INCLINATION":97.5604,"RA_OF_ASC_NODE":161.3228,"ARG_OF_PERICENTER":338.0704,"MEAN_ANOMALY":22.033,"EPHEMERIS_TYPE":0,"CLASSIFICATION_TYPE":"U","NORAD_CAT_ID":55111,"ELEMENT_SET_NO":999,"REV_AT_EPOCH":12937,"BSTAR":0.0005131719,"MEAN_MOTION_DOT":0.00013959,"MEAN_MOTION_DDOT":0},{"OBJECT_NAME":"STARLINK-31794","OBJECT_ID":"2024-093X","EPOCH":"2026-03-09T10:31:44.210496","MEAN_MOTION":15.27609693,"ECCENTRICITY":0.00017045,"INCLINATION":43.0046,"RA_OF_ASC_NODE":210.6044,"ARG_OF_PERICENTER":290.9805,"MEAN_ANOMALY":69.0864,"EPHEMERIS_TYPE":0,"CLASSIFICATION_TYPE":"U","NORAD_CAT_ID":59803,"ELEMENT_SET_NO":999,"REV_AT_EPOCH":10272,"BSTAR":-0.00046972813,"MEAN_MOTION_DOT":-0.00013177,"MEAN_MOTION_DDOT":0}]
