ASTROCAST-0403          
1 55111U 23001DG  26068.82333059  .00013959  00000+0  51317-3 0  9990
2 55111  97.5604 161.3228 0004771 338.0704  22.0330 15.28004949129377
STARLINK-31794          
1 59803U 24093X   26068.43870614 -.00013177  00000+0 -46973-3 0  9990
2 59803  43.0046 210.6044 0001704 290.9805  69.0864 15.27609693102729
